NORAD_CAT_ID,OBJECT_NAME,OBJECT_TYPE,EPOCH,MEAN_MOTION,ECCENTRICITY,INCLINATION,RA_OF_ASC_NODE,ARG_OF_PERICENTER,MEAN_ANOMALY,BSTAR,MEAN_MOTION_DOT,MEAN_MOTION_DDOT,TLE_LINE0,TLE_LINE1,TLE_LINE2,SEMIMAJOR_AXIS,PERIOD,APOGEE,PERIGEE,DECAYED
53900.0,STARLINK-5045,PAYLOAD,2022-11-11 14:00:01,15.5518302,0.0001641999999999,53.2169,17.8012,59.1212,102.2789,-0.014049,-0.00879785,0.0,0 STARLINK-5045,1 53900U 22119Q   22315.58334491 -.00879785  00000-0 -14049-1 0  9997,2 53900  53.2169  17.8012 0001642  59.1212 102.2789 15.55183020  1300,6779.7580000000025,92.594,402.736,400.509,0.0
53900.0,STARLINK-5045,PAYLOAD,2022-11-11 22:00:00,15.54538214,0.0001271,53.2167,16.1946,56.9709,171.3382,-0.01854,-0.01124174,0.0,0 STARLINK-5045,1 53900U 22119Q   22315.91667824 -.01124174  00000-0 -18540-1 0  9999,2 53900  53.2167  16.1946 0001271  56.9709 171.3382 15.54538214  1304,6781.632,92.632,404.359,402.635,0.0
53900.0,STARLINK-5045,PAYLOAD,2022-11-12 14:00:01,15.52901835,0.0001111,53.2165,12.9914,72.9747,286.3841,-0.019468,-0.01112804,0.0,0 STARLINK-5045,1 53900U 22119Q   22316.58334491 -.01112804  00000-0 -19468-1 0  9991,2 53900  53.2165  12.9914 0001111  72.9747 286.3841 15.52901835  1302,6786.396,92.73,409.015,407.507,0.0
53900.0,STARLINK-5045,PAYLOAD,2022-11-12 22:00:00,15.52033955,0.0001361,53.2168,11.3902,47.1307,16.3112,-0.018618,-0.01038471,0.0,0 STARLINK-5045,1 53900U 22119Q   22316.91667824 -.01038471  00000-0 -18618-1 0  9990,2 53900  53.2168  11.3902 0001361  47.1307  16.3112 15.52033955  1309,6788.925,92.781,411.714,409.866,0.0
53900.0,STARLINK-5045,PAYLOAD,2022-11-13 04:00:01,15.51295314,0.0001471,53.2158,10.191,67.1298,313.8590000000001,-0.01618,-0.00879115,0.0,0 STARLINK-5045,1 53900U 22119Q   22317.16668981 -.00879115  00000-0 -16180-1 0  9992,2 53900  53.2158  10.1910 0001471  67.1298 313.8590 15.51295314  8161,6791.08,92.826,413.944,411.946,0.0
53900.0,STARLINK-5045,PAYLOAD,2022-11-13 14:00:01,15.50172606,0.0001545,53.2167,8.1989,70.6527,118.0315,-0.0054961,-0.00303691,0.0,0 STARLINK-5045,1 53900U 22119Q   22317.58334491 -.00303691  00000-0 -54961-2 0  9995,2 53900  53.2167   8.1989 0001545  70.6527 118.0315 15.50172606  1306,6794.359,92.893,417.273,415.174,0.0
53900.0,STARLINK-5045,PAYLOAD,2022-11-13 22:00:00,15.50192431,0.0001199,53.2149,6.6048,62.8553,187.1729,-0.013957,-0.00740081,0.0,0 STARLINK-5045,1 53900U 22119Q   22317.91667824 -.00740081  00000-0 -13957-1 0  9998,2 53900  53.2149   6.6048 0001199  62.8553 187.1729 15.50192431  8280,6794.301,92.892,416.98,415.351,0.0
53900.0,STARLINK-5045,PAYLOAD,2022-11-14 14:00:01,15.49883719,0.0001597,53.2174,3.4181,58.9055,312.752,6.6921e-05,3.348e-05,0.0,0 STARLINK-5045,1 53900U 22119Q   22318.58334491  .00003348  00000-0  66921-4 0  9991,2 53900  53.2174   3.4181 0001597  58.9055 312.7520 15.49883719  8386,6795.203,92.91,418.153,415.983,0.0
53900.0,STARLINK-5045,PAYLOAD,2022-11-14 22:00:00,15.49884164,0.0001515,53.2176,1.8231,63.3352,9.2379,4.1844e-05,1.924e-05,0.0,0 STARLINK-5045,1 53900U 22119Q   22318.91667824  .00001924  00000-0  41844-4 0  9992,2 53900  53.2176   1.8231 0001515  63.3352   9.2379 15.49884164  1306,6795.2019999999975,92.91,418.096,416.037,0.0
53900.0,STARLINK-5045,PAYLOAD,2022-11-15 04:00:00,15.49926087,0.0001388,53.2152,0.6307,62.488,325.8982,-0.0023571,-0.0013219,0.0,0 STARLINK-5045,1 53900U 22119Q   22319.16667824 -.00132190  00000-0 -23571-2 0  9997,2 53900  53.2152   0.6307 0001388  62.4880 325.8982 15.49926087  8489,6795.079000000002,92.908,417.887,416.001,0.0
53900.0,STARLINK-5045,PAYLOAD,2022-11-15 14:00:01,15.50031578,0.000155,53.2154,358.6408,63.6797,130.9084,-0.015722,-0.00821616,0.0,0 STARLINK-5045,1 53900U 22119Q   22319.58334491 -.00821616  00000-0 -15722-1 0  9990,2 53900  53.2154 358.6408 0001550  63.6797 130.9084 15.50031578  1306,6794.771,92.901,417.689,415.583,0.0
53900.0,STARLINK-5045,PAYLOAD,2022-11-15 22:00:00,15.49726428,0.0001224,53.2175,357.0440000000001,67.0643,188.1712,-0.021233,-0.01085354,0.0,0 STARLINK-5045,1 53900U 22119Q   22319.91667824 -.01085354  00000-0 -21233-1 0  9992,2 53900  53.2175 357.0440 0001224  67.0643 188.1712 15.49726428  8598,6795.663000000001,92.92,418.359,416.696,0.0
53900.0,STARLINK-5045,PAYLOAD,2022-11-16 14:00:01,15.4812668,0.0001173,53.2172,353.8642,55.8391,318.99,-0.023393,-0.01142215,0.0,0 STARLINK-5045,1 53900U 22119Q   22320.58335648 -.01142215  00000-0 -23393-1 0  9992,2 53900  53.2172 353.8642 0001173  55.8391 318.9900 15.48126680  8697,6800.343000000003,93.016,423.006,421.411,0.0
53900.0,STARLINK-5045,PAYLOAD,2022-11-16 22:00:08,15.47311838,0.0001203,53.2174,352.2739,59.1699,14.3521,-0.024056,-0.01141583,0.0,0 STARLINK-5045,1 53900U 22119Q   22320.91675926 -.01141583  00000-0 -24056-1 0  9999,2 53900  53.2174 352.2739 0001203  59.1699  14.3521 15.47311838  1308,6802.731,93.065,425.414,423.777,0.0
53900.0,STARLINK-5045,PAYLOAD,2022-11-17 04:00:00,15.46704383,0.0001215,53.2175,351.085,58.2063,327.9489,-0.024658,-0.01145289,0.0,0 STARLINK-5045,1 53900U 22119Q   22321.16667824 -.01145289  00000-0 -24658-1 0  9990,2 53900  53.2175 351.0850 0001215  58.2063 327.9489 15.46704383  8794,6804.512,93.101,427.203,425.55,0.0
53900.0,STARLINK-5045,PAYLOAD,2022-11-17 14:00:01,15.45640993,0.0001513,53.2167,349.1071,53.5145,133.2485,-0.023978,-0.0106427,0.0,0 STARLINK-5045,1 53900U 22119Q   22321.58334491 -.01064270  00000-0 -23978-1 0  9991,2 53900  53.2167 349.1071 0001513  53.5145 133.2485 15.45640993  1307,6807.632,93.165,430.527,428.467,0.0
53900.0,STARLINK-5045,PAYLOAD,2022-11-17 20:00:01,15.45074659,0.0001466,53.2176,347.9179,51.2919,87.0717,-0.02599,-0.01141407,0.0,0 STARLINK-5045,1 53900U 22119Q   22321.83334491 -.01141407  00000-0 -25990-1 0  9993,2 53900  53.2176 347.9179 0001466  51.2919  87.0717 15.45074659  8898,6809.295999999999,93.199,432.159,430.162,0.0
53900.0,STARLINK-5045,PAYLOAD,2022-11-17 22:00:00,15.44845697,0.0001358,53.2173,347.5228,61.1783,180.9468,-0.025249,-0.01103501,0.0,0 STARLINK-5045,1 53900U 22119Q   22321.91667824 -.01103501  00000-0 -25249-1 0  9991,2 53900  53.2173 347.5228 0001358  61.1783 180.9468 15.44845697  1307,6809.968000000003,93.213,432.758,430.909,0.0
53900.0,STARLINK-5045,PAYLOAD,2022-11-18 14:00:01,15.43018914,0.0001348,53.2168,344.366,39.5548,310.4771,-0.01976,-0.00810253,0.0,0 STARLINK-5045,1 53900U 22119Q   22322.58334491 -.00810253  00000-0 -19760-1 0  9995,2 53900  53.2168 344.3660 0001348  39.5548 310.4771 15.43018914  9008,6815.342,93.324,438.126,436.289,0.0
53900.0,STARLINK-5045,PAYLOAD,2022-11-18 20:00:01,15.426346,0.0001329,53.2176,343.1819,52.1574,247.1829,-0.028288,-0.0114295,0.0,0 STARLINK-5045,1 53900U 22119Q   22322.83334491 -.01142950  00000-0 -28288-1 0  9991,2 53900  53.2176 343.1819 0001329  52.1574 247.1829 15.42634600  9048,6816.474,93.347,439.245,437.4330000000001,0.0
53900.0,STARLINK-5045,PAYLOAD,2022-11-18 22:00:00,15.42269749,0.0001595,53.2171,342.7886,44.3262,358.1116,-0.022676,-0.00910323,0.0,0 STARLINK-5045,1 53900U 22119Q   22322.91667824 -.00910323  00000-0 -22676-1 0  9990,2 53900  53.2171 342.7886 0001595  44.3262 358.1116 15.42269749  1305,6817.549,93.369,440.502,438.327,0.0
53900.0,STARLINK-5045,PAYLOAD,2022-11-19 14:00:01,15.40684363,0.0001559,53.2164,339.6437,54.419,89.9365,-0.025523,-0.00966371,0.0,0 STARLINK-5045,1 53900U 22119Q   22323.58334491 -.00966371  00000-0 -25523-1 0  9993,2 53900  53.2164 339.6437 0001559  54.4190  89.9365 15.40684363  9164,6822.225,93.465,445.154,443.027,0.0
53900.0,STARLINK-5045,PAYLOAD,2022-11-19 20:00:01,15.40191184,0.0001375999999999,53.2175,338.4634,51.1429,40.3748,-0.030588,-0.01139026,0.0,0 STARLINK-5045,1 53900U 22119Q   22323.83334491 -.01139026  00000-0 -30588-1 0  9998,2 53900  53.2175 338.4634 0001376  51.1429  40.3748 15.40191184  9203,6823.682,93.495,446.486,444.608,0.0
53900.0,STARLINK-5045,PAYLOAD,2022-11-19 22:00:00,15.39876242,0.0001408,53.2168,338.0716,64.399,129.4558,-0.026356,-0.00970969,0.0,0 STARLINK-5045,1 53900U 22119Q   22323.91667824 -.00970969  00000-0 -26356-1 0  9992,2 53900  53.2168 338.0716 0001408  64.3990 129.4558 15.39876242  1301,6824.611999999999,93.514,447.43800000000016,445.516,0.0
53900.0,STARLINK-5045,PAYLOAD,2022-11-20 14:00:01,15.37896507,9.39e-05,53.2164,334.9380000000001,105.2548,184.8583,-0.013711,-0.00486806,0.0,0 STARLINK-5045,1 53900U 22119Q   22324.58334491 -.00486806  00000-0 -13711-1 0  9990,2 53900  53.2164 334.9380 0000939 105.2548 184.8583 15.37896507  9317,6830.468000000003,93.634,452.974,451.691,0.0
53900.0,STARLINK-5045,PAYLOAD,2022-11-20 22:00:00,15.37544991,0.000121,53.2173,333.371,115.9232,220.5218,-0.033289,-0.01136271,0.0,0 STARLINK-5045,1 53900U 22119Q   22324.91667824 -.01136271  00000-0 -33289-1 0  9997,2 53900  53.2173 333.3710 0001210 115.9232 220.5218 15.37544991  9363,6831.509,93.656,454.2,452.547,0.0
53900.0,STARLINK-5045,PAYLOAD,2022-11-21 14:00:01,15.35557428,0.0001278,53.2162,330.2495,103.2314,323.6044,-0.019339,-0.00632247,0.0,0 STARLINK-5045,1 53900U 22119Q   22325.58334491 -.00632247  00000-0 -19339-1 0  9995,2 53900  53.2162 330.2495 0001278 103.2314 323.6044 15.35557428  9473,6837.401999999999,93.777,460.141,458.393,0.0
53900.0,STARLINK-5045,PAYLOAD,2022-11-21 22:00:00,15.34925051,0.0001289,53.2166,328.6896,92.9999,17.3741,-0.027801,-0.00879098,0.0,0 STARLINK-5045,1 53900U 22119Q   22325.91667824 -.00879098  00000-0 -27801-1 0  9991,2 53900  53.2166 328.6896 0001289  92.9999  17.3741 15.34925051  9525,6839.28,93.816,462.027,460.264,0.0
53900.0,STARLINK-5045,PAYLOAD,2022-11-22 06:00:02,15.34291319,0.0001338,53.2173,327.1334,88.5396,64.4678,-0.037034,-0.01137778,0.0,0 STARLINK-5045,1 53900U 22119Q   22326.25002315 -.01137778  00000-0 -37034-1 0  9999,2 53900  53.2173 327.1334 0001338  88.5396  64.4678 15.34291319  9571,6841.163000000001,93.854,463.944,462.11300000000006,0.0
